#aV2009 12 29  0  0   .00000000      96 DD+AD WGS84 FIT  NGA
## 1564 172800.00000000   900.00000000 55194  .0000000000000
+   32     1  2  3  4  5  6  7  8  9 10 11 12 13 14 15 16 17
+         18 19 20 21 22 23 24 25 26 27 28 29 30 31 32  0  0
+          0  0  0  0  0  0  0  0  0  0  0  0  0  0  0  0  0
+          0  0  0  0  0  0  0  0  0  0  0  0  0  0  0  0  0
+          0  0  0  0  0  0  0  0  0  0  0  0  0  0  0  0  0
++         0  0  0  0  0  0  0  0  0  0  0  0  0  0  0  0  0
++         0  0  0  0  0  0  0  0  0  0  0  0  0  0  0  0  0
++         0  0  0  0  0  0  0  0  0  0  0  0  0  0  0  0  0
++         0  0  0  0  0  0  0  0  0  0  0  0  0  0  0  0  0
++         0  0  0  0  0  0  0  0  0  0  0  0  0  0  0  0  0
%c cc cc ccc ccc cccc cccc cccc cccc ccccc ccccc ccccc ccccc
%c cc cc ccc ccc cccc cccc cccc cccc ccccc ccccc ccccc ccccc
%f  0.0000000  0.000000000  0.00000000000  0.000000000000000
%f  0.0000000  0.000000000  0.00000000000  0.000000000000000
%i    0    0    0    0      0      0      0      0         0
%i    0    0    0    0      0      0      0      0         0
/*      NGA, ST. LOUIS,MO.                                  
/*   EPHEMERIS COMPUTED FROM  3 DAYS OF DATA                
/* CCCCCCCCCCCCCCCCCCCCCCCCCCCCCCCCCCCCCCCCCCCCCCCCCCCCCCCCC
/* CCCCCCCCCCCCCCCCCCCCCCCCCCCCCCCCCCCCCCCCCCCCCCCCCCCCCCCCC
*  2009 12 29  9 15   .00000000                                                 
P  1  15201.378896  19004.673004 -10868.072958    -75.014278                    
V  1 -12623.250800  -5568.406218 -27543.490229      -.030496                    
P  2 -22538.262345  13408.909642   2192.756791    209.255352                    
V  2  -4341.460441  -2087.321095 -31403.970814       .044349                    
P  3  11008.752400 -17671.883538  15943.556962    494.505991                    
V  3   4027.331285  20944.017320  20342.506710       .052110                    
P  4 -24661.166771   4361.522575  -9541.830768   -430.554812                    
V  4   9349.564663  -7739.877873 -27824.014724      -.188897                    
P  5 -13373.228581   8894.328042  21150.156755    -22.700983                    
V  5 -22096.945381 -15320.486860  -7441.957118       .045649                    
P  6  13587.380941 -14059.724076  18107.316736    262.647035                    
V  6   1663.635912  22790.446738  16719.086021      -.012610                    
P  7  -9800.908759 -11757.478162  21712.385141      5.200917                    
V  7  24572.655874 -12442.975222   4201.428668      -.006395                    
P  8 -20596.523885  -3294.175102  16729.037754      1.500534                    
V  8  19053.203253  -8906.378133  21166.929220       .005836                    
P  9  -9160.254245  18300.687075 -17563.613132     96.802899                    
V  9 -19096.247970   8821.208827  19954.946027       .021988                    
P 10 -17798.783270   4134.569166  19218.907092    -31.457320                    
V 10 -19535.515501 -15135.155337 -14362.728944      -.009591                    
P 11   3131.645981 -20316.359827 -16887.762234    -36.815487                    
V 11  18499.019893 -11187.434210  17514.316437      -.021451                    
P 12   3011.049796  18000.986839 -19289.869938   -170.172391                    
V 12 -20976.605468 -12789.022921 -15034.440287       .050181                    
P 13  -6232.581694 -21779.188797  13727.682007    306.636643                    
V 13   3645.538262 -17272.455118 -25525.951631       .000573                    
P 14  13798.902847   6051.259734 -21747.024030     -6.386828                    
V 14  -3241.424369  27669.561853   5488.582937       .045465                    
P 15  -7810.376397  23506.546880   9479.829061   -316.088893                    
V 15  -2210.852946 -12154.016489  28495.836640       .016480                    
P 16  18942.460340  -2285.475494  18631.391857    -24.659040                    
V 16  18521.669658  14415.769900 -16857.356515      -.041765                    
P 17 -14728.088032  -4790.851465 -21518.323065    116.307115                    
V 17   2570.641109 -27370.736044   4115.053689       .034435                    
P 18  19056.794068  18095.121807   5300.506272     38.070216                    
V 18  -6950.981805  -1172.748762  30087.757856       .026399                    
P 19   8708.439861 -23764.980590   7590.852068     -6.548785                    
V 19   1608.044039   9988.471800  29844.593473      -.021330                    
P 20  -7474.162277 -19222.991396 -16898.067028     64.457146                    
V 20  19136.024317   9472.598932 -19333.677944      -.007930                    
P 21  15224.095101   9282.758727  20148.020836    -30.554638                    
V 21 -22037.220679  11583.194506  10855.126349      -.024307                    
P 22  23391.162015  10849.004584  -6374.101876    182.841798                    
V 22   4835.394952   7550.891871  29761.577120      -.008650                    
P 23   -117.225193 -26241.430957   2826.431896    383.483555                    
V 23   3042.680659  -3446.076251 -31866.710786      -.007829                    
P 24  -1303.956677  16749.182923  20728.028832    249.186792                    
V 24 -24225.771499   9659.040506  -9131.873538       .032570                    
P 25  -3353.654645 -15386.535253  21761.278863     66.566051                    
V 25  22947.331154 -13752.651329  -6099.267404       .096528                    
P 26  10993.648528  14798.228789 -19475.034612     -5.572091                    
V 26  -3944.488351  23366.619191  16429.695328      -.027345                    
P 27 -12864.842829  18062.076470 -13864.018767    112.467758                    
V 27 -17362.303816   7494.346533  24732.714647       .033629                    
P 28 -22860.838583 -13226.982370  -3637.765687    -24.259938                    
V 28  -2843.723876  -4866.223731  31295.607794       .003730                    
P 29   5087.266430  23981.741176  10357.009708     85.911608                    
V 29  -3630.085345  12732.717978 -27900.092158       .029039                    
P 30  13610.129373  19003.248541 -13052.144232    205.818107                    
V 30 -14824.912306  -6296.396185 -25322.452689       .032968                    
P 31  24666.072171  -6725.426009  -7266.950293    -57.188588                    
V 31  -7529.397763   6128.749363 -30169.229013       .011904                    
P 32   2005.279964 -16565.952333 -20369.170193    128.204549                    
V 32  21357.975840  15907.505426 -10338.108068      -.078464                    
EOF
